HAWK-2B                 
1 47508U 21006CZ  26068.67629241  .00009474  00000+0  29651-3 0  9991
2 47508  97.2334 114.1140 0007102 185.9063 174.2098 15.33301353284246
STARLINK-35791          
1 66896U 25283U   26068.27018726  .00026498  00000+0  90370-3 0  9990
2 66896  53.1626  25.8507 0001187  53.7672 306.3438 15.30196711 15786
