[{"OBJECT_NAME":"HAWK-2B","OBJECT_ID":"2021-006CZ","EPOCH":"2026-03-09T16:13:51.664224","MEAN_MOTION":15.33301353,"ECCENTRICITY":0.00071021,"INCLINATION":97.2334,"RA_OF_ASC_NODE":114.114,"ARG_OF_PERICENTER":185.9063,"MEAN_ANOMALY":174.2098,"EPHEMERIS_TYPE":0,"CLASSIFICATION_TYPE":"U","NORAD_CAT_ID":47508,"ELEMENT_SET_NO":999,"REV_AT_EPOCH":28424,"BSTAR":0.00029650607,"MEAN_MOTION_DOT":9.474e-5,"MEAN_MOTION_DDOT":0},{"OBJECT_NAME":"STARLINK-35791","OBJECT_ID":"2025-283U","EPOCH":"2026-03-09T06:29:04.179264","MEAN_MOTION":15.30196711,"ECCENTRICITY":0.00011872,"INCLINATION":53.1626,"RA_OF_ASC_NODE":25.8507,"ARG_OF_PERICENTER":53.7672,"MEAN_ANOMALY":306.3438,"EPHEMERIS_TYPE":0,"CLASSIFICATION_TYPE":"U","NORAD_CAT_ID":66896,"ELEMENT_SET_NO":999,"REV_AT_EPOCH":1578,"BSTAR":0.0009036964,"MEAN_MOTION_DOT":0.00026498,"MEAN_MOTION_DDOT":0}]
